SMDC ONE 2.4            
1 39469U 13072H   26068.55980652  .00015821  00000+0  65974-3 0  9996
2 39469 120.4883 328.0945 0137633 267.6479  90.8828 15.15767863102719
STARLINK-1271           
1 45217U 20012AR  26068.25754237  .00003935  00000+0  14487-3 0  9997
2 45217  53.1602  25.9675 0001421  94.3231 265.7932 15.30210928335097
